{
  "norad_id": 45669,
  "name": "STARLINK-1452",
  "history": [
    {
      "epoch": "2026-03-28T20:57:09.131904Z",
      "apogee_km": 426.0891582662125,
      "perigee_km": 419.019159737315,
      "latitude_deg": -2.2353693558387734e-05,
      "longitude_deg": 149.53950764821892,
      "height_km": 425.5823412269732,
      "semi_major_axis_km": 6800.6911590017635,
      "eccentricity": 0.0005198,
      "inclination_deg": 53.0304,
      "raan_deg": 290.1148,
      "arg_perigee_deg": 127.2912,
      "mean_anomaly_deg": 232.8569,
      "mean_motion_rev_day": 15.48007937
    }
  ]
}