{"fetched_at":"2026-03-29T16:36:15Z","count":15609,"tles":[{"name":"STARLINK-1452","line1":"1 45669U 20035N   26087.87302236  .00083015  00000+0  15532-2 0  9998","line2":"2 45669  53.0304 290.1148 0005198 127.2912 232.8569 15.48007937322331","category":"Starlink"}]}